STARLINK-30525          
1 58012U 23153X   26068.00175496  .00000980  00000+0  46237-4 0  9996
2 58012  43.0059  70.7104 0001869 287.6945  72.3702 15.26741269134791
GESAT GEN1              
1 62612U 25009D   26068.72662138  .00010041  00000+0  38326-3 0  9990
2 62612  97.4058 151.4598 0000888  98.3547 261.7793 15.26847505 63732
